LEMUR-2-PETERG          
1 42841U 17042S   26068.48235713  .00023240  00000+0  81076-3 0  9993
2 42841  97.3980 253.6596 0003700 341.6938  18.4169 15.29611459473171
STARLINK-31107          
1 58684U 23211T   26068.05927359 -.00000272  00000+0 -37366-6 0  9995
2 58684  42.9994  89.2231 0001392 277.9362  82.1331 15.27585804122363
