[{"OBJECT_NAME":"LEMUR-2-PETERG","OBJECT_ID":"2017-042S","EPOCH":"2026-03-09T11:34:35.656032","MEAN_MOTION":15.29611459,"ECCENTRICITY":0.00037,"INCLINATION":97.398,"RA_OF_ASC_NODE":253.6596,"ARG_OF_PERICENTER":341.6938,"MEAN_ANOMALY":18.4169,"EPHEMERIS_TYPE":0,"CLASSIFICATION_TYPE":"U","NORAD_CAT_ID":42841,"ELEMENT_SET_NO":999,"REV_AT_EPOCH":47317,"BSTAR":0.00081076471,"MEAN_MOTION_DOT":0.0002324,"MEAN_MOTION_DDOT":0},{"OBJECT_NAME":"STARLINK-31107","OBJECT_ID":"2023-211T","EPOCH":"2026-03-09T01:25:21.238176","MEAN_MOTION":15.27585804,"ECCENTRICITY":0.0001392,"INCLINATION":42.9994,"RA_OF_ASC_NODE":89.2231,"ARG_OF_PERICENTER":277.9362,"MEAN_ANOMALY":82.1331,"EPHEMERIS_TYPE":0,"CLASSIFICATION_TYPE":"U","NORAD_CAT_ID":58684,"ELEMENT_SET_NO":999,"REV_AT_EPOCH":12236,"BSTAR":-3.73663e-7,"MEAN_MOTION_DOT":-2.72e-6,"MEAN_MOTION_DDOT":0}]
